#dP2020  5  8  0  0  0.00000000      96 __u+U ITR00 FIT  IAC
## 2104 432000.00000000   900.00000000 58977 0.0000000000000
+  117   C06C07C08C09C10C11C12C13C14C16C19C20C21C22C23C24C25
+        C26C27C28C29C30C32C33C34C35C36C37C38C39C40C43C44C45
+        C46E01E02E03E04E05E07E08E09E11E12E13E14E15E18E19E21
+        E24E25E26E27E30E31E33E36G01G02G03G04G05G06G07G08G09
+        G10G11G12G13G14G15G16G17G18G19G20G21G22G23G24G25G26
+        G27G28G29G30G31G32J01J02J03R01R02R03R04R05R07R08R09
+        R11R12R13R14R15R16R17R18R19R20R21R22R23R24R26  0  0
++         8  9  8  9  7  8  9  8  8  8  7  7  7  7  5  6  7
++         7  7  6  7  6  7  6  9  7  8  7  6 10 12 10  9  8
++        10  5  6  6  5  6  5  5  6  5  6  5  6  7  6  6  5
++         5  6  6  6  6  6  5  6  6  6  6  6  6  5  6  7  6
++         6  7  5  6  6  5  6  5  6  5  6  5  6  7  5  4  5
++         6  6  5  6  8  5  9  9  8  6  6  5  6  7  6  6  6
++         7  7  6  6  6  7  5  6  7  6  5  8  6  5  8  0  0
%c M  cc GPS ccc cccc cccc cccc cccc ccccc ccccc ccccc ccccc
%c cc cc ccc ccc cccc cccc cccc cccc ccccc ccccc ccccc ccccc
%f  0.0000000  0.000000000  0.00000000000  0.000000000000000
%f  0.0000000  0.000000000  0.00000000000  0.000000000000000
%i    0    0    0    0      0      0      0      0         0
%i    0    0    0    0      0      0      0      0         0
/* INFORMATION & ANALYSIS CENTER (IAC)      ULTRA-RAPID DATA
/* S/V CLOCKS ARE ALIGNED TO GNSS TIME                      
/* G:C1WC2W R:C1PC2P E:C1XC5X C:C2IC6I J:C1CC2S             
/* PCV:IGS14_2101 OL/AL:FES2004  NONE     YN ORB:CoN CLK:CoN
*  2020 05 08  9  0  0.00000000
PC06 -20667.110879  20983.366675 -29928.440923    729.014020
PC07 -20026.416871  36769.550260  -1270.037389    -16.109794
PC08  -5536.437955  27949.224088  31296.374965   -241.260872
PC09  -1960.092419  24325.700030 -34122.220957    525.865191
PC10  -8686.796427  39154.036266  12480.352884   -934.594280
PC11 -24705.382852   1137.047467  12937.560547   -351.446409
PC12 -25142.577171 -11004.273113  -4961.591987    367.678602
PC13   5563.272100  36254.890944  21111.727596    424.244659
PC14 -22944.545403  11526.523424  10890.737090    382.443884
PC16 -16421.723126  22041.807145 -31946.824245   -651.787983
PC19  20980.791925 -18296.668435  -2061.644246    405.957873
PC20  21505.053525  -4017.299335 -17319.520208   -883.192571
PC21  -9154.201428 -13255.177305  22812.988476   -375.466209
PC22   8324.423555 -22234.177870  14703.869167   -812.586699
PC23    445.429272  26752.840526  -7918.933923   -883.270326
PC24 -16964.077033  -6422.942212 -21208.291647   -829.506710
PC25 -11138.899031  15180.706011 -20606.041365   -609.660587
PC26 -13096.377556 -22552.332646  -9893.644021    672.681947
PC27  19057.428253  15516.122804  13182.355117    326.330322
PC28   -144.041303  16336.512132  22624.701721    317.410096
PC29  18876.863433  -8342.873630 -18788.729939    225.566831
PC30  27233.391852   4815.590935  -3633.508720    313.713755
PC32   9296.477558  13137.196663 -22775.312009   -898.130788
PC33 -20927.267436  18315.717429   2181.406522   -843.758292
PC34 -27237.995710  -4604.806451   4052.167517   -700.322599
PC35   -237.656113 -16365.504416 -22609.267910   -854.908031
PC36  11618.597321 -14679.304295  20719.754321   -827.720100
PC37  12276.559186  23273.689599   9326.829965   -842.528199
PC38  -2703.540635  32298.086775  27042.168910     76.678336
PC39 -11883.332125  23601.868031 -32868.236966 999999.999999
PC40 -16229.428403  37334.235266  10603.512473 999999.999999
PC43 -19206.444311   8122.698102  18551.521673 999999.999999
PC44 -19415.781944 -15042.985542 -13287.334171 999999.999999
PC45   -550.679515 -26726.167336   7988.745376 999999.999999
PC46  16870.694573   5919.745035  21440.433686    846.208078
PE01  14843.100873 -20121.664166  15838.022641   -852.080490
PE02 -14818.230767  20201.051395 -15779.010562    131.849267
PE03 -24422.316847  14478.726701  -8339.154673   -296.352837
PE04   6991.770548 -18724.664001  21844.319402   -521.120122
PE05 -27732.116053   1690.610127  10212.983240   -382.049948
PE07  14831.862889  11967.854280 -22638.924876   -378.875382
PE08  -6674.480129  18619.779423 -22008.353371   6181.316623
PE09 -14926.839948 -11714.676970  22724.432157   6068.101156
PE11 -20097.019952 -21277.746167  -4509.023856   2709.122502
PE12  -3483.666287 -20954.463899 -20622.771344   5815.945381
PE13  20033.553804  21255.587052   4766.040838    400.677066
PE14  -9723.010288  13493.245317  16524.342852  -1006.149697
PE15   3777.427097  20948.084327  20571.065272    867.801959
PE18   8215.640560 -19921.221455 -24467.540701  -1104.970956
PE19  25567.486948 -13442.657850   6471.857664  -1770.383680
PE21  16587.498770    401.537411  24506.991998   -597.751725
PE24  -8506.801736 -21218.040995 -18807.959232   5466.887806
PE25 -16567.961837   -548.621218 -24521.729790   -510.259945
PE26  24473.066344   8839.223887 -14104.369223   3213.814208
PE27   8683.454337  21026.396047  18939.977970    224.554822
PE30  -4651.107313  29172.754518   1952.160966   3924.340767
PE31   4285.543593 -29200.978689  -2270.337220   -472.494914
PE33  14687.866413  -8347.854625 -24298.350435   -467.535916
PE36 -24541.241380  -9086.530756  13848.362613    562.936416
PG01 -18948.844627 -10094.583312  15636.883842   -375.838799
PG02  13143.003910  22768.171702   4624.164095   -452.395690
PG03 -16750.814004   1716.079190  20455.913242   -169.033962
PG04 -26529.930503   -470.680814   1521.249849    -86.530530
PG05   5967.253989  18219.993724 -18431.950179    -12.278452
PG06   4373.883695  22705.489042  13079.073150   -267.629735
PG07 -12758.265727   8304.594419 -21458.199676   -276.268021
PG08 -22484.197065  -7025.320708 -12504.934411    -33.263346
PG09 -23600.910627   8162.793487  -9121.874590   -213.172647
PG10  11236.475897 -23905.903002   1016.651496   -334.442132
PG11 -23379.025415 -12045.535934   1725.297574   -283.316001
PG12  16126.978615    351.270966  20830.880126    120.378943
PG13  15681.303516  13011.620914 -17203.010499      8.290190
PG14   -526.669719 -15397.490631  21986.292914    -14.433125
PG15  23454.736763   5325.014387 -11985.563356   -232.673920
PG16  -5078.157066 -17036.027881 -19800.802818   -155.667240
PG17 -10184.554466  13751.199127  20721.694940    261.317763
PG18  13243.403854  -7389.838747 -21819.072466    182.776429
PG19  -1622.860161  14536.686109  21869.572745   -161.656020
PG20  15068.865307 -18921.664926 -10795.430426    527.725762
PG21  11657.467011  -9469.567628 -21132.260235 999999.999999
PG22 -13897.402272  -8111.246636  21357.123366   -782.959363
PG23 -24316.073154   7623.214671  -7848.615259   -115.924065
PG24  20294.096854  10568.762195  13591.050181    -12.746092
PG25  17891.847808 -10650.449140  16089.594600      2.397842
PG26   2355.953466 -23939.135825 -11043.962123    202.381062
PG27 -13257.765341 -12479.424999 -19596.443167   -287.983225
PG28 -12068.543982  23572.110278   3456.934643    719.173790
PG29  25412.072789  -4051.224747  -6665.588464    -99.394607
PG30  -4592.516048  18448.209375 -18424.126514   -215.482066
PG31  -4719.263483 -23177.086318  11567.860959    -41.008961
PG32   8583.954474 -14874.503707  20304.645915    276.138189
PJ01 -34935.739799  23483.247460   2285.108975   -308.368140
PJ02 -19690.831810  30768.526218 -16702.046074     -2.750482
PJ03 -29550.067944  23128.416933  24324.767779     -2.746876
PR01  -6026.444619  15412.377752 -19397.220418     61.198249
PR02  13441.179400   3367.705925 -21357.734435    425.645436
PR03  21964.991860  -9104.266173  -9127.037641     14.640016
PR04  17893.807062 -16252.932062   8174.190525     48.365580
PR05   3769.843208 -14150.578126  20895.872573     50.079658
PR07 -22095.669477   9408.598450   8696.691359    -36.287062
PR08 -17958.766373  16224.794551  -8017.650988    -52.091284
PR09 -10497.226943 -11926.357975 -19967.640620    131.429902
PR11  -5509.168478  20687.954226 -13820.435000    -22.849044
PR12   2535.106382  25288.363876   2333.115392    129.013028
PR13   9538.801281  15462.214692  17884.354716    -38.433365
PR14  10793.335780  -3456.252338  22861.325539     50.982393
PR15   5873.576513 -20093.712897  14590.960577    106.438629
PR16  -3300.514619 -25066.517031  -2881.304908     -3.371746
PR17  21560.661488   4465.461704 -12900.734356    323.150492
PR18   9807.091079  -6399.818502 -22641.100756     34.631712
PR19  -6341.305556 -13858.948912 -20456.947751    -92.327717
PR20 -20912.051305 -13874.885727  -4703.488481   -411.131221
PR21 -21129.707598  -3936.651899  13719.281632   -123.108404
PR22  -7545.373082   7727.221202  23120.003093     -0.216959
PR23  12770.165874  14902.668972  16280.420072    304.141217
PR24  21216.189890  13604.987664   3967.120393     -2.490169
PR26 -18843.973143 -14483.471297  -9221.823122   -396.175476
EOF
